IRIDIUM 36 [-]          
1 24967U 97056C   23259.55497734  .00000621  00000+0  20558-3 0  9991
2 24967  86.3910  81.5375 0001847  87.9911 272.1497 14.36392554360363
IRIDIUM 39 [-]          
1 25042U 97069D   23259.18432963  .00000741  00000+0  19668-3 0  9995
2 25042  86.3909 125.2301 0016487 283.8147  76.1221 14.47348852356338
IRIDIUM 38 [-]          
1 25043U 97069E   23259.23209269  .00000589  00000+0  19283-3 0  9996
2 25043  86.3990 142.1840 0004081  69.2335 290.9299 14.36873606354020
IRIDIUM 42 [-]          
1 25077U 97077A   23259.23921766  .00000374  00000+0  12398-3 0  9997
2 25077  86.4007 147.5662 0002683  76.4591 283.6904 14.35189507349371
IRIDIUM 44 [-]          
1 25078U 97077B   23259.58016529  .00000551  00000+0  17245-3 0  9991
2 25078  86.3959 131.0805 0002164  32.1134 328.0196 14.38972971351682
IRIDIUM 45 [-]          
1 25104U 97082A   23259.30753754  .00015786  00000+0  10298-2 0  9991
2 25104  86.3823 350.4462 0183337 152.7761 208.3230 14.94886327355689
IRIDIUM 24 [-]          
1 25105U 97082B   23259.31064860  .00000744  00000+0  22658-3 0  9998
2 25105  86.3975 351.2431 0012670  38.9255 321.2854 14.40724062351048
IRIDIUM 51 [-]          
1 25262U 98018A   23259.34183330  .00015928  00000+0  89203-3 0  9998
2 25262  86.3985   1.0321 0169898 108.8016 253.1733 15.01733590350040
